OBJECT_NAME,OBJECT_ID,EPOCH,MEAN_MOTION,ECCENTRICITY,INCLINATION,RA_OF_ASC_NODE,ARG_OF_PERICENTER,MEAN_ANOMALY,EPHEMERIS_TYPE,CLASSIFICATION_TYPE,NORAD_CAT_ID,ELEMENT_SET_NO,REV_AT_EPOCH,BSTAR,MEAN_MOTION_DOT,MEAN_MOTION_DDOT
STARLINK-31436,2024-036X,2026-06-13T19:21:01.714176,15.30194583,.00011504,53.1628,352.0626,108.4895,251.6231,0,U,59019,999,13003,.58561405E-4,.1375E-4,0
STARLINK-30996,2024-038A,2026-06-12T09:46:54.708096,15.27578201,.00024543,43.0082,212.1445,292.2691,67.7901,0,U,59023,999,13061,.59167557E-4,.1366E-4,0
STARLINK-31006,2024-038B,2026-06-12T17:09:59.771232,15.27584325,.00030847,43.0157,159.9586,281.3162,78.7343,0,U,59024,999,12987,.31893467E-4,.615E-5,0
STARLINK-31178,2024-038C,2026-06-13T09:34:03.398016,15.27588261,.00007618,43.0048,206.6750,277.3833,82.6932,0,U,59025,999,12928,.88704116E-4,.218E-4,0
STARLINK-30863,2024-038E,2026-06-13T19:30:26.643168,15.27578287,.00013097,43.0013,204.6121,268.4445,91.6257,0,U,59027,999,12934,-.8557805E-5,-.498E-5,0
STARLINK-31206,2024-038F,2026-06-13T15:53:15.828864,15.27581732,.00018738,43.0042,140.0192,287.5303,72.5344,0,U,59028,999,13020,.29942421E-4,.562E-5,0
STARLINK-31224,2024-038G,2026-06-13T19:52:27.089184,15.27572271,.00015059,43.0020,203.8818,287.2748,72.7939,0,U,59029,999,12946,.4718071E-5,-.132E-5,0
STARLINK-31186,2024-038H,2026-06-13T19:04:32.681280,15.27578425,.00014741,42.9995,204.4844,274.9208,85.1475,0,U,59030,999,12945,.10239359E-4,.2E-6,0
STARLINK-31211,2024-038J,2026-06-13T19:45:02.460096,15.27576528,.00012551,43.0025,203.8393,282.2365,77.8346,0,U,59031,999,12935,-.8322337E-5,-.491E-5,0
STARLINK-30862,2024-038K,2026-06-13T19:19:23.198304,15.27580164,.00016277,43.0054,193.3679,264.0189,96.0478,0,U,59032,999,12947,.23729532E-4,.391E-5,0
STARLINK-31210,2024-038L,2026-06-13T18:48:35.557632,15.27580390,.00013396,43.0003,200.9570,269.1498,90.9200,0,U,59033,999,12955,.26475344E-4,.467E-5,0
STARLINK-31231,2024-038M,2026-06-12T09:45:46.875456,15.27563359,.00018091,43.0015,208.6821,280.3501,79.7147,0,U,59034,999,12917,-.35807538E-4,-.1247E-4,0
STARLINK-31207,2024-038N,2026-06-13T13:55:01.074720,15.27584421,.0001483,42.9998,202.0061,269.5746,90.4936,0,U,59035,999,12952,.78696E-4,.1904E-4,0
STARLINK-31217,2024-038P,2026-06-13T13:36:59.469408,15.27565851,.0001478,43.0075,107.7502,261.3461,98.7223,0,U,59036,999,13060,-.27834E-4,-.1028E-4,0
STARLINK-31208,2024-038Q,2026-06-13T19:35:59.779968,15.27578303,.00011298,42.9997,204.6194,270.2413,89.8309,0,U,59037,999,12951,.51654632E-4,.116E-4,0
STARLINK-31235,2024-038R,2026-06-13T09:08:51.253728,15.27579886,.00025919,43.0040,203.0967,283.3825,76.6738,0,U,59038,999,12943,.27305067E-4,.489E-5,0
STARLINK-31220,2024-038S,2026-06-13T09:11:50.933760,15.27582909,.00026919,43.0124,206.5646,284.9145,75.1409,0,U,59039,999,12939,.39094575E-4,.813E-5,0
STARLINK-31225,2024-038T,2026-06-13T19:47:34.658880,15.27564175,.0001471,43.0018,200.3681,260.6059,99.4626,0,U,59040,999,12939,-.22569457E-3,-.6464E-4,0
STARLINK-31240,2024-038U,2026-06-13T19:08:56.823360,15.27578529,.00013105,42.9988,201.0645,271.9408,88.1293,0,U,59041,999,12949,.35611604E-4,.718E-5,0
STARLINK-31202,2024-038V,2026-06-13T19:00:53.901792,15.28755456,.00020719,43.0009,200.1709,142.5472,217.5525,0,U,59042,999,12956,.42193798E-3,.1179E-3,0
STARLINK-31234,2024-038W,2026-06-13T18:59:42.542304,15.27570710,.00008013,43.0108,201.0124,270.1032,89.9728,0,U,59043,999,12938,-.66185806E-4,-.2082E-4,0
STARLINK-31153,2024-038X,2026-06-13T09:03:17.821440,15.27585251,.000264,43.0046,203.0679,281.7655,78.2901,0,U,59044,999,12932,.10378577E-3,.2595E-4,0
STARLINK-31241,2024-038Y,2026-06-13T19:05:14.561952,15.27573723,.00010904,42.9987,201.0425,268.3788,91.6938,0,U,59045,999,12955,.12212241E-3,.3099E-4,0
STARLINK-31205,2024-038Z,2026-06-13T09:29:11.278752,15.27593100,.0001315,43.0041,203.1954,282.7826,77.2878,0,U,59046,999,12943,.8751437E-4,.2148E-4,0
STARLINK-31265,2024-041A,2026-06-13T15:01:35.368320,15.27580036,.00016511,43.0096,128.9145,266.2405,93.8258,0,U,59074,999,12894,.24110183E-4,.401E-5,0
STARLINK-31276,2024-041B,2026-06-13T14:15:21.508416,15.27568495,.0001907,43.0011,128.6797,279.0731,80.9905,0,U,59075,999,12899,-.56557E-5,-.418E-5,0
STARLINK-31259,2024-041C,2026-06-13T04:55:56.737920,15.27580597,.00007532,43.0031,130.9261,259.5948,100.4818,0,U,59076,999,12783,.24165978E-4,.403E-5,0
STARLINK-31281,2024-041D,2026-06-13T14:26:26.390112,15.27574803,.0000813,43.0041,128.7346,290.1873,69.8891,0,U,59077,999,12899,.21122E-4,.319E-5,0
STARLINK-31274,2024-041E,2026-06-13T15:08:59.153280,15.27582930,.00022881,43.0074,128.9520,278.1740,81.8852,0,U,59078,999,12894,.43554291E-4,.936E-5,0
STARLINK-31257,2024-041F,2026-06-13T14:44:54.693024,15.27590519,.0003546,43.0033,128.8316,268.6554,91.3892,0,U,59079,999,12894,.90063E-4,.2217E-4,0
