STARLINK-31436          
1 59019U 24036X   26164.80626984  .00001375  00000+0  58561-4 0  9995
2 59019  53.1628 352.0626 0001150 108.4895 251.6231 15.30194583130033
STARLINK-30996          
1 59023U 24038A   26163.40757764  .00001366  00000+0  59168-4 0  9992
2 59023  43.0082 212.1445 0002454 292.2691  67.7901 15.27578201130612
STARLINK-31006          
1 59024U 24038B   26163.71527513  .00000615  00000+0  31893-4 0  9995
2 59024  43.0157 159.9586 0003084 281.3162  78.7343 15.27584325129874
STARLINK-31178          
1 59025U 24038C   26164.39865044  .00002180  00000+0  88704-4 0  9997
2 59025  43.0048 206.6750 0000761 277.3833  82.6932 15.27588261129282
STARLINK-30863          
1 59027U 24038E   26164.81280837 -.00000498  00000+0 -85578-5 0  9996
2 59027  43.0013 204.6121 0001310 268.4445  91.6257 15.27578287129341
STARLINK-31206          
1 59028U 24038F   26164.66198875  .00000562  00000+0  29942-4 0  9992
2 59028  43.0042 140.0192 0001874 287.5303  72.5344 15.27581732130206
STARLINK-31224          
1 59029U 24038G   26164.82809131 -.00000132  00000+0  47181-5 0  9995
2 59029  43.0020 203.8818 0001506 287.2748  72.7939 15.27572271129464
STARLINK-31186          
1 59030U 24038H   26164.79482270  .00000020  00000+0  10239-4 0  9992
2 59030  42.9995 204.4844 0001474 274.9208  85.1475 15.27578425129458
STARLINK-31211          
1 59031U 24038J   26164.82294514 -.00000491  00000+0 -83223-5 0  9997
2 59031  43.0025 203.8393 0001255 282.2365  77.8346 15.27576528129356
STARLINK-30862          
1 59032U 24038K   26164.80512961  .00000391  00000+0  23730-4 0  9998
2 59032  43.0054 193.3679 0001628 264.0189  96.0478 15.27580164129478
STARLINK-31210          
1 59033U 24038L   26164.78374487  .00000467  00000+0  26475-4 0  9998
2 59033  43.0003 200.9570 0001340 269.1498  90.9200 15.27580390129554
STARLINK-31231          
1 59034U 24038M   26163.40679254 -.00001247  00000+0 -35808-4 0  9996
2 59034  43.0015 208.6821 0001809 280.3501  79.7147 15.27563359129171
STARLINK-31207          
1 59035U 24038N   26164.57987355  .00001904  00000+0  78696-4 0  9990
2 59035  42.9998 202.0061 0001483 269.5746  90.4936 15.27584421129520
STARLINK-31217          
1 59036U 24038P   26164.56735497 -.00001028  00000+0 -27834-4 0  9995
2 59036  43.0075 107.7502 0001478 261.3461  98.7223 15.27565851130605
STARLINK-31208          
1 59037U 24038Q   26164.81666411  .00001160  00000+0  51655-4 0  9996
2 59037  42.9997 204.6194 0001130 270.2413  89.8309 15.27578303129512
STARLINK-31235          
1 59038U 24038R   26164.38114877  .00000489  00000+0  27305-4 0  9991
2 59038  43.0040 203.0967 0002591 283.3825  76.6738 15.27579886129437
STARLINK-31220          
1 59039U 24038S   26164.38322840  .00000813  00000+0  39095-4 0  9993
2 59039  43.0124 206.5646 0002691 284.9145  75.1409 15.27582909129390
STARLINK-31225          
1 59040U 24038T   26164.82470669 -.00006464  00000+0 -22569-3 0  9994
2 59040  43.0018 200.3681 0001471 260.6059  99.4626 15.27564175129390
STARLINK-31240          
1 59041U 24038U   26164.79787990  .00000718  00000+0  35612-4 0  9997
2 59041  42.9988 201.0645 0001311 271.9408  88.1293 15.27578529129493
STARLINK-31202          
1 59042U 24038V   26164.79229052  .00011790  00000+0  42194-3 0  9992
2 59042  43.0009 200.1709 0002072 142.5472 217.5525 15.28755456129561
STARLINK-31234          
1 59043U 24038W   26164.79146461 -.00002082  00000+0 -66186-4 0  9999
2 59043  43.0108 201.0124 0000801 270.1032  89.9728 15.27570710129384
STARLINK-31153          
1 59044U 24038X   26164.37728960  .00002595  00000+0  10379-3 0  9993
2 59044  43.0046 203.0679 0002640 281.7655  78.2901 15.27585251129329
STARLINK-31241          
1 59045U 24038Y   26164.79530742  .00003099  00000+0  12212-3 0  9997
2 59045  42.9987 201.0425 0001090 268.3788  91.6938 15.27573723129550
STARLINK-31205          
1 59046U 24038Z   26164.39526943  .00002148  00000+0  87514-4 0  9994
2 59046  43.0041 203.1954 0001315 282.7826  77.2878 15.27593100129438
STARLINK-31265          
1 59074U 24041A   26164.62610380  .00000401  00000+0  24110-4 0  9997
2 59074  43.0096 128.9145 0001651 266.2405  93.8258 15.27580036128943
STARLINK-31276          
1 59075U 24041B   26164.59399894 -.00000418  00000+0 -56557-5 0  9999
2 59075  43.0011 128.6797 0001907 279.0731  80.9905 15.27568495128995
STARLINK-31259          
1 59076U 24041C   26164.20551780  .00000403  00000+0  24166-4 0  9994
2 59076  43.0031 130.9261 0000753 259.5948 100.4818 15.27580597127831
STARLINK-31281          
1 59077U 24041D   26164.60169433  .00000319  00000+0  21122-4 0  9994
2 59077  43.0041 128.7346 0000813 290.1873  69.8891 15.27574803128997
STARLINK-31274          
1 59078U 24041E   26164.63124020  .00000936  00000+0  43554-4 0  9999
2 59078  43.0074 128.9520 0002288 278.1740  81.8852 15.27582929128941
STARLINK-31257          
1 59079U 24041F   26164.61452191  .00002217  00000+0  90063-4 0  9992
2 59079  43.0033 128.8316 0003546 268.6554  91.3892 15.27590519128948
